STARLINK-30763          
1 58163U 23166P   25115.74194477 -.00003802  00000+0 -85167-4 0  9993
2 58163  53.1604 244.3254 0003175  70.7851 289.3498 15.39586865 84665
STARLINK-30815          
1 58164U 23166Q   25114.78970435  .00003169  00000+0  11917-3 0  9998
2 58164  53.1613 260.9184 0001319 106.5976 253.5170 15.30175063 84357
STARLINK-30814          
1 58165U 23166R   25115.73988934 -.00000042  00000+0  10718-4 0  9995
2 58165  53.1644 256.1915 0001433  52.5292 307.5839 15.30184225 84508
STARLINK-30789          
1 58166U 23166S   25115.76627107 -.00001269  00000+0 -30771-4 0  9995
2 58166  53.1633 256.3482 0000671 126.6227 233.4835 15.30182030 84507
STARLINK-30811          
1 58167U 23166T   25115.81153490 -.00002977  00000+0 -88422-4 0  9994
2 58167  53.1606 255.9221 0001097  72.6276 287.4844 15.30197041 84351
STARLINK-30812          
1 58168U 23166U   25115.67773370 -.00002497  00000+0 -72207-4 0  9995
2 58168  53.1635 256.5090 0001207  62.1498 297.9625 15.30202297 84339
STARLINK-30771          
1 58169U 23166V   25115.75676914 -.00000385  00000+0 -89204-6 0  9992
2 58169  53.1610 256.2885 0000819 122.7908 237.3171 15.30185925 84500
STARLINK-30764          
1 58170U 23166W   25115.75360312 -.00000925  00000+0 -19115-4 0  9998
2 58170  53.1585 256.2728 0001120  83.3512 276.7616 15.30188465 84501
STARLINK-30752          
1 58171U 23166X   25115.75042719  .00003442  00000+0  12828-3 0  9995
2 58171  53.1579 256.2390 0000917 113.8593 246.2504 15.30198975 84517
COSMOS 2571             
1 58172U 23165C   25115.71810681  .00000086  00000+0  11457-3 0  9990
2 58172  67.1497 223.0123 0019627 288.6690  71.2264 13.97271006 76030
STARLINK-30753          
1 58175U 23167A   25115.89189751  .00001660  00000+0  13789-3 0  9990
2 58175  43.0040  72.4720 0000680 252.3717 107.7051 15.02538509 83103
STARLINK-30824          
1 58176U 23167B   25115.02656371  .00000725  00000+0  68730-4 0  9991
2 58176  43.0022  77.1578 0001104 274.0088  86.0629 15.02535634 83028
STARLINK-30791          
1 58177U 23167C   25115.90742426  .00001296  00000+0  11096-3 0  9992
2 58177  43.0052  72.5747 0001809  42.3116 317.7866 15.02544211 83106
STARLINK-30810          
1 58178U 23167D   25115.35240496  .00001956  00000+0  15977-3 0  9997
2 58178  43.0032  76.1515 0001007 271.1504  88.9223 15.02540297 83060
STARLINK-30819          
1 58179U 23167E   25115.88090745  .00003433  00000+0  26899-3 0  9993
2 58179  43.0040  73.2347 0001195 293.3211  66.7506 15.02546949 83147
STARLINK-30806          
1 58180U 23167F   25115.19058917  .00001380  00000+0  11719-3 0  9998
2 58180  42.9995  76.6521 0001420 262.5330  97.5351 15.02541173 83041
STARLINK-30821          
1 58181U 23167G   25115.90408043  .00001465  00000+0  12350-3 0  9993
2 58181  43.0034  72.5455 0001132 263.0320  97.0393 15.02546820 83106
STARLINK-30778          
1 58182U 23167H   25115.90076235  .00000567  00000+0  57050-4 0  9997
2 58182  43.0040  72.5202 0000792 242.5541 117.5221 15.02515309 83108
STARLINK-30809          
1 58183U 23167J   25115.60833071  .00004696  00000+0  36252-3 0  9991
2 58183  42.9962  74.6307 0000226 326.1769  33.9059 15.02524943 83106
STARLINK-30801          
1 58184U 23167K   25115.87090614  .00001524  00000+0  12782-3 0  9998
2 58184  43.0025  73.1583 0000875 264.6888  95.3854 15.02544180 83095
STARLINK-30793          
1 58185U 23167L   25115.89742828  .00000373  00000+0  42708-4 0  9995
2 58185  43.0029  72.4964 0001397 266.1619  93.9063 15.02540351 83108
STARLINK-30755          
1 58186U 23167M   25115.59611839  .00001074  00000+0  94576-4 0  9999
2 58186  43.0026  74.5358 0000926 264.7080  95.3657 15.02532561 83108
STARLINK-30760          
1 58187U 23167N   25114.96340883 -.00000626  00000+0 -31293-4 0  9999
2 58187  43.0034  77.5272 0001167 273.9782  86.0927 15.02553181 83013
STARLINK-30826          
1 58188U 23167P   25115.86092316  .00001361  00000+0  11576-3 0  9991
2 58188  43.0036  73.0822 0001107 269.3723  90.6993 15.02537935 83097
STARLINK-30796          
1 58189U 23167Q   25115.59833766  .00002343  00000+0  18840-3 0  9996
2 58189  43.0030  74.5498 0001106 258.1988 101.8730 15.02540739 83107
STARLINK-30820          
1 58190U 23167R   25115.60169924 -.00004979  00000+0 -35402-3 0  9990
2 58190  43.0038  74.5724 0000324 345.1352  14.9481 15.02509277 83101
STARLINK-30785          
1 58191U 23167S   25115.58834496  .00001261  00000+0  10835-3 0  9993
2 58191  43.0028  74.4746 0001243 280.1155  79.9547 15.02547371 83105
STARLINK-30807          
1 58192U 23167T   25115.59167747  .00000355  00000+0  41354-4 0  9997
2 58192  43.0030  74.5011 0001285 277.6576  82.4120 15.02538822 83106
STARLINK-30822          
1 58193U 23167U   25115.85093456  .00000416  00000+0  45842-4 0  9996
2 58193  43.0052  73.0104 0001143 272.5500  87.5211 15.02534337 83140
STARLINK-30830          
1 58194U 23167V   25115.91299137  .00038337  00000+0  28506-2 0  9997
2 58194  42.9995  72.5999 0001212 347.7475  12.3338 15.02362287 83154
STARLINK-30827          
1 58195U 23167W   25115.91074675  .00003990  00000+0  31007-3 0  9994
2 58195  43.0076  72.6028 0001059 265.3982  94.6739 15.02557766 83042
STARLINK-30798          
1 58196U 23167X   25115.02336714 -.00000033  00000+0  12608-4 0  9995
2 58196  43.0032  77.9776 0000964 266.9941  93.0791 15.02519890 83013
STARLINK-30762          
1 58197U 23167Y   25115.58168697  .00000665  00000+0  64262-4 0  9993
2 58197  43.0036  74.4239 0001422 274.8865  85.1815 15.02539723 83103
TIANHUI 5A              
1 58199U 23168A   25115.43081212  .00000869  00000+0  10166-3 0  9996
2 58199  97.8194 123.7914 0001902  79.9981 280.1450 14.87583714 80493
TIANHUI 5B              
1 58201U 23168C   25115.49807436  .00000959  00000+0  11155-3 0  9999
2 58201  97.8206 123.8585 0001670  97.6213 262.5193 14.87584120 80505
TJS-10                  
1 58204U 23169A   25115.70770148  .00000005  00000+0  00000+0 0  9991
2 58204   1.4648  85.5006 0002436 204.2625 351.8778  1.00270593  5487
STARLINK-30800          
1 58206U 23170A   25115.70661023  .00001651  00000+0  13725-3 0  9996
2 58206  42.9979 124.0065 0000629 292.2396  67.8380 15.02531861 82465
STARLINK-30845          
1 58207U 23170B   25115.47054703  .00001045  00000+0  92385-4 0  9999
2 58207  43.0033 124.8351 0001221 269.9811  90.0891 15.02536483 82412
STARLINK-30841          
1 58208U 23170C   25115.51715263  .00001463  00000+0  12330-3 0  9995
2 58208  43.0046 125.1435 0001422 274.0467  86.0213 15.02545518 82312
STARLINK-30839          
1 58209U 23170D   25115.03187015 -.00002076  00000+0 -13875-3 0  9999
2 58209  43.0040 127.5372 0001392 266.0886  93.9797 15.02516929 82346
STARLINK-30846          
1 58210U 23170E   25115.69994321  .00001182  00000+0  10250-3 0  9998
2 58210  43.0030 123.9505 0001540 282.6229  77.4441 15.02556604 82342
STARLINK-30838          
1 58211U 23170F   25115.02517852  .00001262  00000+0  10847-3 0  9997
2 58211  43.0019 127.4890 0001364 268.6371  91.4315 15.02537939 82348
STARLINK-30837          
1 58212U 23170G   25115.70326843  .00001399  00000+0  11857-3 0  9994
2 58212  43.0019 123.9593 0000761 271.6761  88.3994 15.02542775 82473
STARLINK-30813          
1 58213U 23170H   25115.48719054  .00002404  00000+0  19301-3 0  9990
2 58213  43.0024 124.9350 0001178 274.1977  85.8731 15.02528645 82417
STARLINK-30805          
1 58214U 23170J   25115.01851579  .00001714  00000+0  14193-3 0  9996
2 58214  43.0025 127.4390 0001366 272.8220  87.2466 15.02539039 82348
STARLINK-30851          
1 58215U 23170K   25115.34757802  .00000587  00000+0  58564-4 0  9995
2 58215  43.0023 125.6085 0001434 311.4653  48.6066 15.02535766 82399
STARLINK-30818          
1 58217U 23170M   25115.00852713  .00004454  00000+0  34447-3 0  9997
2 58217  43.0015 127.3650 0001568 272.6793  87.3870 15.02544688 82341
STARLINK-30794          
1 58218U 23170N   25115.49385751  .00007049  00000+0  53604-3 0  9993
2 58218  43.0034 124.9640 0001506 347.6582  12.4223 15.02557484 82413
STARLINK-30835          
1 58219U 23170P   25115.46723522  .00005594  00000+0  42876-3 0  9995
2 58219  43.0040 124.7854 0001528 271.3601  88.7066 15.02542350 82412
STARLINK-30792          
1 58220U 23170Q   25115.72979411  .00001528  00000+0  12818-3 0  9992
2 58220  43.0011 123.3151 0001094 269.6346  90.4371 15.02539428 82478
STARLINK-30836          
1 58221U 23170R   25115.72646722 -.00000217  00000+0 -99238-6 0  9999
2 58221  43.0025 123.2894 0000919 272.9113  87.1624 15.02538872 82354
STARLINK-30855          
1 58222U 23170S   25114.38370584  .00000060  00000+0  19500-4 0  9997
2 58222  43.0027 131.2571 0001239 282.1829  77.8875 15.02536495 82242
STARLINK-30840          
1 58223U 23170T   25115.51048667 -.00007105  00000+0 -51177-3 0  9992
2 58223  43.0037 125.0892 0001210 273.5911  86.4793 15.02509647 82419
STARLINK-30875          
1 58224U 23170U   25115.34424676  .00001467  00000+0  12368-3 0  9994
2 58224  43.0024 125.5675 0001328 260.1991  99.8701 15.02536309 82399
STARLINK-30872          
1 58225U 23170V   25115.82499420  .00008855  00000+0  34807-3 0  9997
2 58225  43.0016  46.6881 0001812 274.3346  85.7298 15.25898993 82190
STARLINK-30865          
1 58226U 23170W   25115.28951991  .00000879  00000+0  80133-4 0  9996
2 58226  43.0079 114.9862 0001620 278.8459  81.2200 15.02535836 82518
STARLINK-30874          
1 58227U 23170X   25115.72324767  .00000724  00000+0  68664-4 0  9995
2 58227  43.0020 124.1086 0001093 275.6477  84.4241 15.02538910 82353
STARLINK-30871          
1 58228U 23170Y   25115.71988111  .00004438  00000+0  34315-3 0  9995
2 58228  43.0014 124.0874 0001342 297.1683  62.9023 15.02567068 81260
STARLINK-30861          
1 58230U 23171A   25115.58499563  .00006211  00000+0  47456-3 0  9993
2 58230  43.0031 214.5516 0003057 263.2689  96.7806 15.02525084 81890
